ONEWEB-0501             
1 54119U 22138G   25287.21650282  .00000073  00000+0  15044-3 0  9992
2 54119  87.9280 353.8865 0001719 111.9657 248.1658 13.19727374144368
ONEWEB-0502             
1 54120U 22138H   25287.20227373 -.00006647  00000+0 -16639-1 0  9998
2 54120  87.9278 353.8718 0002493  89.1846 270.9573 13.19758561144383
ONEWEB-0503             
1 54121U 22138J   25287.26702979 -.00000048  00000+0 -15098-3 0  9994
2 54121  87.9277 353.8633 0001707  93.4408 266.6920 13.19723354144388
ONEWEB-0504             
1 54122U 22138K   25287.17857958 -.00000084  00000+0 -24286-3 0  9992
2 54122  87.9278 353.8981 0001637 104.2625 255.8690 13.19723439144388
ONEWEB-0505             
1 54123U 22138L   25287.17542539 -.00000102  00000+0 -28646-3 0  9994
2 54123  87.9276 353.8869 0001619 116.2381 243.8918 13.19726943144365
ONEWEB-0506             
1 54124U 22138M   25287.22596894 -.00000035  00000+0 -11923-3 0  9999
2 54124  87.9275 353.8740 0001766 103.8081 256.3248 13.19723627144366
ONEWEB-0507             
1 54125U 22138N   25287.17068138 -.00000008  00000+0 -51713-4 0  9991
2 54125  87.9255 353.9304 0001844 106.3329 253.8007 13.19723350144405
ONEWEB-0508             
1 54126U 22138P   25287.16752897 -.00000112  00000+0 -31299-3 0  9995
2 54126  87.9269 353.9188 0001845 111.4753 248.6577 13.19723414144382
ONEWEB-0509             
1 54127U 22138Q   25287.21806245 -.00000320  00000+0 -83080-3 0  9995
2 54127  87.9277 353.8741 0001833 103.4904 256.6433 13.19725423144362
ONEWEB-0510             
1 54128U 22138R   25287.14918860  .00000006  00000+0 -17071-4 0  9993
2 54128  87.9215 323.5051 0002216  83.2971 276.8414 13.20773554146802
ONEWEB-0511             
1 54129U 22138S   25287.21491333  .00000079  00000+0  16596-3 0  9992
2 54129  87.9278 353.8790 0001628  94.8365 265.2954 13.19724602144390
ONEWEB-0512             
1 54130U 22138T   25287.20701166  .00000159  00000+0  36487-3 0  9991
2 54130  87.9257 353.9146 0001671 109.2723 250.8591 13.19724708144363
ONEWEB-0513             
1 54131U 22138U   25287.23922838 -.00000076  00000+0 -22034-3 0  9999
2 54131  87.9278 353.8687 0001287 105.6371 254.4905 13.20315828144267
ONEWEB-0514             
1 54132U 22138V   25287.22280660 -.00000023  00000+0 -89873-4 0  9996
2 54132  87.9277 353.8908 0001895  95.9068 264.2281 13.19726981144385
ONEWEB-0515             
1 54133U 22138W   25287.13656374  .00000034  00000+0  51216-4 0  9996
2 54133  87.9222 323.4890 0002770  91.9411 268.2040 13.20769920146820
ONEWEB-0516             
1 54134U 22138X   25287.19753484  .00000048  00000+0  88486-4 0  9997
2 54134  87.9259 353.9216 0001950 104.4644 255.6705 13.19727975144387
