[{"OBJECT_NAME":"ONEWEB-0501","OBJECT_ID":"2022-138G","EPOCH":"2025-10-14T05:11:45.843648","MEAN_MOTION":13.19727374,"ECCENTRICITY":0.00017197,"INCLINATION":87.928,"RA_OF_ASC_NODE":353.8865,"ARG_OF_PERICENTER":111.9657,"MEAN_ANOMALY":248.1658,"EPHEMERIS_TYPE":0,"CLASSIFICATION_TYPE":"U","NORAD_CAT_ID":54119,"ELEMENT_SET_NO":999,"REV_AT_EPOCH":14436,"BSTAR":0.00015044426,"MEAN_MOTION_DOT":7.3e-7,"MEAN_MOTION_DDOT":0},{"OBJECT_NAME":"ONEWEB-0502","OBJECT_ID":"2022-138H","EPOCH":"2025-10-14T04:51:16.450272","MEAN_MOTION":13.19758561,"ECCENTRICITY":0.00024933,"INCLINATION":87.9278,"RA_OF_ASC_NODE":353.8718,"ARG_OF_PERICENTER":89.1846,"MEAN_ANOMALY":270.9573,"EPHEMERIS_TYPE":0,"CLASSIFICATION_TYPE":"U","NORAD_CAT_ID":54120,"ELEMENT_SET_NO":999,"REV_AT_EPOCH":14438,"BSTAR":-0.016639302,"MEAN_MOTION_DOT":-6.647e-5,"MEAN_MOTION_DDOT":0},{"OBJECT_NAME":"ONEWEB-0503","OBJECT_ID":"2022-138J","EPOCH":"2025-10-14T06:24:31.373856","MEAN_MOTION":13.19723354,"ECCENTRICITY":0.00017075,"INCLINATION":87.9277,"RA_OF_ASC_NODE":353.8633,"ARG_OF_PERICENTER":93.4408,"MEAN_ANOMALY":266.692,"EPHEMERIS_TYPE":0,"CLASSIFICATION_TYPE":"U","NORAD_CAT_ID":54121,"ELEMENT_SET_NO":999,"REV_AT_EPOCH":14438,"BSTAR":-0.00015098245,"MEAN_MOTION_DOT":-4.8e-7,"MEAN_MOTION_DDOT":0},{"OBJECT_NAME":"ONEWEB-0504","OBJECT_ID":"2022-138K","EPOCH":"2025-10-14T04:17:09.275712","MEAN_MOTION":13.19723439,"ECCENTRICITY":0.00016379,"INCLINATION":87.9278,"RA_OF_ASC_NODE":353.8981,"ARG_OF_PERICENTER":104.2625,"MEAN_ANOMALY":255.869,"EPHEMERIS_TYPE":0,"CLASSIFICATION_TYPE":"U","NORAD_CAT_ID":54122,"ELEMENT_SET_NO":999,"REV_AT_EPOCH":14438,"BSTAR":-0.00024285828,"MEAN_MOTION_DOT":-8.4e-7,"MEAN_MOTION_DDOT":0},{"OBJECT_NAME":"ONEWEB-0505","OBJECT_ID":"2022-138L","EPOCH":"2025-10-14T04:12:36.753696","MEAN_MOTION":13.19726943,"ECCENTRICITY":0.00016196,"INCLINATION":87.9276,"RA_OF_ASC_NODE":353.8869,"ARG_OF_PERICENTER":116.2381,"MEAN_ANOMALY":243.8918,"EPHEMERIS_TYPE":0,"CLASSIFICATION_TYPE":"U","NORAD_CAT_ID":54123,"ELEMENT_SET_NO":999,"REV_AT_EPOCH":14436,"BSTAR":-0.00028645831,"MEAN_MOTION_DOT":-1.02e-6,"MEAN_MOTION_DDOT":0},{"OBJECT_NAME":"ONEWEB-0506","OBJECT_ID":"2022-138M","EPOCH":"2025-10-14T05:25:23.716416","MEAN_MOTION":13.19723627,"ECCENTRICITY":0.00017665,"INCLINATION":87.9275,"RA_OF_ASC_NODE":353.874,"ARG_OF_PERICENTER":103.8081,"MEAN_ANOMALY":256.3248,"EPHEMERIS_TYPE":0,"CLASSIFICATION_TYPE":"U","NORAD_CAT_ID":54124,"ELEMENT_SET_NO":999,"REV_AT_EPOCH":14436,"BSTAR":-0.00011923401,"MEAN_MOTION_DOT":-3.5e-7,"MEAN_MOTION_DDOT":0},{"OBJECT_NAME":"ONEWEB-0507","OBJECT_ID":"2022-138N","EPOCH":"2025-10-14T04:05:46.871232","MEAN_MOTION":13.1972335,"ECCENTRICITY":0.00018447,"INCLINATION":87.9255,"RA_OF_ASC_NODE":353.9304,"ARG_OF_PERICENTER":106.3329,"MEAN_ANOMALY":253.8007,"EPHEMERIS_TYPE":0,"CLASSIFICATION_TYPE":"U","NORAD_CAT_ID":54125,"ELEMENT_SET_NO":999,"REV_AT_EPOCH":14440,"BSTAR":-5.1713341e-5,"MEAN_MOTION_DOT":-8.0e-8,"MEAN_MOTION_DDOT":0},{"OBJECT_NAME":"ONEWEB-0508","OBJECT_ID":"2022-138P","EPOCH":"2025-10-14T04:01:14.503008","MEAN_MOTION":13.19723414,"ECCENTRICITY":0.00018454,"INCLINATION":87.9269,"RA_OF_ASC_NODE":353.9188,"ARG_OF_PERICENTER":111.4753,"MEAN_ANOMALY":248.6577,"EPHEMERIS_TYPE":0,"CLASSIFICATION_TYPE":"U","NORAD_CAT_ID":54126,"ELEMENT_SET_NO":999,"REV_AT_EPOCH":14438,"BSTAR":-0.0003129935,"MEAN_MOTION_DOT":-1.12e-6,"MEAN_MOTION_DDOT":0},{"OBJECT_NAME":"ONEWEB-0509","OBJECT_ID":"2022-138Q","EPOCH":"2025-10-14T05:14:00.595680","MEAN_MOTION":13.19725423,"ECCENTRICITY":0.00018335,"INCLINATION":87.9277,"RA_OF_ASC_NODE":353.8741,"ARG_OF_PERICENTER":103.4904,"MEAN_ANOMALY":256.6433,"EPHEMERIS_TYPE":0,"CLASSIFICATION_TYPE":"U","NORAD_CAT_ID":54127,"ELEMENT_SET_NO":999,"REV_AT_EPOCH":14436,"BSTAR":-0.00083079556,"MEAN_MOTION_DOT":-3.2e-6,"MEAN_MOTION_DDOT":0},{"OBJECT_NAME":"ONEWEB-0510","OBJECT_ID":"2022-138R","EPOCH":"2025-10-14T03:34:49.895040","MEAN_MOTION":13.20773554,"ECCENTRICITY":0.00022161,"INCLINATION":87.9215,"RA_OF_ASC_NODE":323.5051,"ARG_OF_PERICENTER":83.2971,"MEAN_ANOMALY":276.8414,"EPHEMERIS_TYPE":0,"CLASSIFICATION_TYPE":"U","NORAD_CAT_ID":54128,"ELEMENT_SET_NO":999,"REV_AT_EPOCH":14680,"BSTAR":-1.7071038e-5,"MEAN_MOTION_DOT":6.0e-8,"MEAN_MOTION_DDOT":0},{"OBJECT_NAME":"ONEWEB-0511","OBJECT_ID":"2022-138S","EPOCH":"2025-10-14T05:09:28.511712","MEAN_MOTION":13.19724602,"ECCENTRICITY":0.0001628,"INCLINATION":87.9278,"RA_OF_ASC_NODE":353.879,"ARG_OF_PERICENTER":94.8365,"MEAN_ANOMALY":265.2954,"EPHEMERIS_TYPE":0,"CLASSIFICATION_TYPE":"U","NORAD_CAT_ID":54129,"ELEMENT_SET_NO":999,"REV_AT_EPOCH":14439,"BSTAR":0.0001659614,"MEAN_MOTION_DOT":7.9e-7,"MEAN_MOTION_DDOT":0},{"OBJECT_NAME":"ONEWEB-0512","OBJECT_ID":"2022-138T","EPOCH":"2025-10-14T04:58:05.807424","MEAN_MOTION":13.19724708,"ECCENTRICITY":0.00016717,"INCLINATION":87.9257,"RA_OF_ASC_NODE":353.9146,"ARG_OF_PERICENTER":109.2723,"MEAN_ANOMALY":250.8591,"EPHEMERIS_TYPE":0,"CLASSIFICATION_TYPE":"U","NORAD_CAT_ID":54130,"ELEMENT_SET_NO":999,"REV_AT_EPOCH":14436,"BSTAR":0.00036487362,"MEAN_MOTION_DOT":1.59e-6,"MEAN_MOTION_DDOT":0},{"OBJECT_NAME":"ONEWEB-0513","OBJECT_ID":"2022-138U","EPOCH":"2025-10-14T05:44:29.332032","MEAN_MOTION":13.20315828,"ECCENTRICITY":0.00012874,"INCLINATION":87.9278,"RA_OF_ASC_NODE":353.8687,"ARG_OF_PERICENTER":105.6371,"MEAN_ANOMALY":254.4905,"EPHEMERIS_TYPE":0,"CLASSIFICATION_TYPE":"U","NORAD_CAT_ID":54131,"ELEMENT_SET_NO":999,"REV_AT_EPOCH":14426,"BSTAR":-0.00022033977,"MEAN_MOTION_DOT":-7.6e-7,"MEAN_MOTION_DDOT":0},{"OBJECT_NAME":"ONEWEB-0514","OBJECT_ID":"2022-138V","EPOCH":"2025-10-14T05:20:50.490240","MEAN_MOTION":13.19726981,"ECCENTRICITY":0.00018955,"INCLINATION":87.9277,"RA_OF_ASC_NODE":353.8908,"ARG_OF_PERICENTER":95.9068,"MEAN_ANOMALY":264.2281,"EPHEMERIS_TYPE":0,"CLASSIFICATION_TYPE":"U","NORAD_CAT_ID":54132,"ELEMENT_SET_NO":999,"REV_AT_EPOCH":14438,"BSTAR":-8.9872596e-5,"MEAN_MOTION_DOT":-2.3e-7,"MEAN_MOTION_DDOT":0},{"OBJECT_NAME":"ONEWEB-0515","OBJECT_ID":"2022-138W","EPOCH":"2025-10-14T03:16:39.107136","MEAN_MOTION":13.2076992,"ECCENTRICITY":0.00027707,"INCLINATION":87.9222,"RA_OF_ASC_NODE":323.489,"ARG_OF_PERICENTER":91.9411,"MEAN_ANOMALY":268.204,"EPHEMERIS_TYPE":0,"CLASSIFICATION_TYPE":"U","NORAD_CAT_ID":54133,"ELEMENT_SET_NO":999,"REV_AT_EPOCH":14682,"BSTAR":5.1216412e-5,"MEAN_MOTION_DOT":3.4e-7,"MEAN_MOTION_DDOT":0},{"OBJECT_NAME":"ONEWEB-0516","OBJECT_ID":"2022-138X","EPOCH":"2025-10-14T04:44:27.010176","MEAN_MOTION":13.19727975,"ECCENTRICITY":0.00019502,"INCLINATION":87.9259,"RA_OF_ASC_NODE":353.9216,"ARG_OF_PERICENTER":104.4644,"MEAN_ANOMALY":255.6705,"EPHEMERIS_TYPE":0,"CLASSIFICATION_TYPE":"U","NORAD_CAT_ID":54134,"ELEMENT_SET_NO":999,"REV_AT_EPOCH":14438,"BSTAR":8.8486443e-5,"MEAN_MOTION_DOT":4.8e-7,"MEAN_MOTION_DDOT":0}]
